NORAD_CAT_ID,OBJECT_NAME,OBJECT_TYPE,EPOCH,MEAN_MOTION,ECCENTRICITY,INCLINATION,RA_OF_ASC_NODE,ARG_OF_PERICENTER,MEAN_ANOMALY,BSTAR,MEAN_MOTION_DOT,MEAN_MOTION_DDOT,TLE_LINE0,TLE_LINE1,TLE_LINE2,SEMIMAJOR_AXIS,PERIOD,APOGEE,PERIGEE,DECAYED
55651.0,STARLINK-5506,PAYLOAD,2023-03-04 10:00:01,15.73898529,0.0003432,70.0003,108.7843,276.1441,272.9284,-0.007618,-0.00967212,0.0,0 STARLINK-5506,1 55651U 23021Z   23063.41668981 -.00967212  00000-0 -76180-2 0  9990,2 55651  70.0003 108.7843 0003432 276.1441 272.9284 15.73898529  2847,6725.904,91.493,350.078,345.461,0.0
55651.0,STARLINK-5506,PAYLOAD,2023-03-04 14:00:01,15.74409655,0.0002552,69.9955,108.3047,276.2735,137.0794,0.0036917,0.00573997,0.0,0 STARLINK-5506,1 55651U 23021Z   23063.58334491  .00573997  00000-0  36917-2 0  9999,2 55651  69.9955 108.3047 0002552 276.2735 137.0794 15.74409655  1307,6724.449,91.463,348.03,344.598,0.0
55651.0,STARLINK-5506,PAYLOAD,2023-03-04 16:00:00,15.7452569,0.0002567,69.9952,108.0689,275.8114,249.7275,0.0032436,0.0050249,0.0,0 STARLINK-5506,1 55651U 23021Z   23063.66667824  .00502490  00000-0  32436-2 0  9999,2 55651  69.9952 108.0689 0002567 275.8114 249.7275 15.74525690  2882,6724.118,91.456,347.709,344.257,0.0
55651.0,STARLINK-5506,PAYLOAD,2023-03-04 22:00:00,15.7280544,0.0003265,69.9956,107.3634,269.0434,231.163,-0.0074591,-0.00909746,0.0,0 STARLINK-5506,1 55651U 23021Z   23063.91667824 -.00909746  00000-0 -74591-2 0  9992,2 55651  69.9956 107.3634 0003265 269.0434 231.1630 15.72805440  1302,6729.02,91.556,353.082,348.688,0.0
55651.0,STARLINK-5506,PAYLOAD,2023-03-05 00:00:00,15.72646082,0.0003395,69.9954,107.1281,265.1927,346.6858,-0.0076796,-0.00928235,0.0,0 STARLINK-5506,1 55651U 23021Z   23064.00001157 -.00928235  00000-0 -76796-2 0  9997,2 55651  69.9954 107.1281 0003395 265.1927 346.6858 15.72646082  2933,6729.475,91.565,353.625,349.055,0.0
55651.0,STARLINK-5506,PAYLOAD,2023-03-05 14:00:01,15.71426461,0.0003692,69.9948,105.4829,271.9433,40.2131,-0.0084611,-0.0098219,0.0,0 STARLINK-5506,1 55651U 23021Z   23064.58334491 -.00982190  00000-0 -84611-2 0  9995,2 55651  69.9948 105.4829 0003692 271.9433  40.2131 15.71426461  1309,6732.956,91.636,357.307,352.336,0.0
55651.0,STARLINK-5506,PAYLOAD,2023-03-05 16:00:00,15.71276176,0.0003616,69.9946,105.248,273.2023,150.2025,-0.0089794,-0.01030572,0.0,0 STARLINK-5506,1 55651U 23021Z   23064.66667824 -.01030572  00000-0 -89794-2 0  9999,2 55651  69.9946 105.2480 0003616 273.2023 150.2025 15.71276176  3047,6733.386,91.645,357.685,352.816,0.0
55651.0,STARLINK-5506,PAYLOAD,2023-03-05 22:00:00,15.70629204,0.0003669,69.995,104.5438,264.8058,132.0813,-0.0069615,-0.00786013,0.0,0 STARLINK-5506,1 55651U 23021Z   23064.91667824 -.00786013  00000-0 -69615-2 0  9994,2 55651  69.9950 104.5438 0003669 264.8058 132.0813 15.70629204  1302,6735.235,91.683,359.571,354.628,0.0
55651.0,STARLINK-5506,PAYLOAD,2023-03-06 08:00:01,15.69915219,0.0003558,69.996,103.3716,271.5256,320.0539,-6.0101e-05,-7.431e-05,0.0,0 STARLINK-5506,1 55651U 23021Z   23065.33334491 -.00007431  00000-0 -60101-4 0  9995,2 55651  69.9960 103.3716 0003558 271.5256 320.0539 15.69915219  3141,6737.277,91.725,361.539,356.744,0.0
55651.0,STARLINK-5506,PAYLOAD,2023-03-06 22:00:00,15.69889444,0.0003356,69.9983,101.7313,269.9824,17.4442,0.00085743,0.00104023,0.0,0 STARLINK-5506,1 55651U 23021Z   23065.91667824  .00104023  00000-0  85743-3 0  9999,2 55651  69.9983 101.7313 0003356 269.9824  17.4442 15.69889444  1305,6737.35,91.726,361.476,356.954,0.0
55651.0,STARLINK-5506,PAYLOAD,2023-03-07 08:00:01,15.69898967,0.0003468,69.9998,100.5599,276.1694,205.4205,-9.5395e-05,-0.00011656,0.0,0 STARLINK-5506,1 55651U 23021Z   23066.33334491 -.00011656  00000-0 -95395-4 0  9993,2 55651  69.9998 100.5599 0003468 276.1694 205.4205 15.69898967  3301,6737.323,91.726,361.525,356.852,0.0
55651.0,STARLINK-5506,PAYLOAD,2023-03-07 14:00:01,15.69975879,0.0003366,69.9997,99.8566,277.981,176.1041,-0.00071908,-0.00085981,0.0,0 STARLINK-5506,1 55651U 23021Z   23066.58334491 -.00085981  00000-0 -71908-3 0  9995,2 55651  69.9997  99.8566 0003366 277.9810 176.1041 15.69975879  3344,6737.103,91.721,361.236,356.7,0.0
55651.0,STARLINK-5506,PAYLOAD,2023-03-07 22:00:00,15.69816231,0.0003457,70.0002,98.9192,265.324,272.1454,0.0011499,0.00139756,0.0,0 STARLINK-5506,1 55651U 23021Z   23066.91667824  .00139756  00000-0  11499-2 0  9997,2 55651  70.0002  98.9192 0003457 265.3240 272.1454 15.69816231  1303,6737.56,91.73,361.754,357.096,0.0
55651.0,STARLINK-5506,PAYLOAD,2023-03-08 06:00:00,15.69910927,0.0003429,70.0007,97.982,266.0382,354.6813,0.00016327,0.00019454,0.0,0 STARLINK-5506,1 55651U 23021Z   23067.25001157  .00019454  00000-0  16327-3 0  9994,2 55651  70.0007  97.9820 0003429 266.0382 354.6813 15.69910927  3448,6737.289,91.725,361.464,356.844,0.0
55651.0,STARLINK-5506,PAYLOAD,2023-03-08 22:00:00,15.6985533,0.0003386,70.0007,96.1077,257.4872,169.9615,0.00098862,0.00120033,0.0,0 STARLINK-5506,1 55651U 23021Z   23067.91667824  .00120033  00000-0  98862-3 0  9996,2 55651  70.0007  96.1077 0003386 257.4872 169.9615 15.69855330  1309,6737.448,91.728,361.594,357.032,0.0
55651.0,STARLINK-5506,PAYLOAD,2023-03-09 19:07:22,15.69945278,0.0003423,70.0003,93.6332,260.2843,99.7966,0.0002084,0.00024942,0.0,0 STARLINK-5506,1 55651U 23021Z   23068.79679332  .00024942  00000-0  20840-3 0  9993,2 55651  70.0003  93.6332 0003423 260.2843  99.7966 15.69945278  3697,6737.191,91.723,361.362,356.749,0.0
55651.0,STARLINK-5506,PAYLOAD,2023-03-10 04:17:53,15.69926023,0.0003834,70.0003,92.5584,258.6032,101.4733,3.1952e-05,3.631e-05,0.0,0 STARLINK-5506,1 55651U 23021Z   23069.17909479  .00003631  00000-0  31952-4 0  9993,2 55651  70.0003  92.5584 0003834 258.6032 101.4733 15.69926023  3758,6737.246,91.724,361.694,356.528,0.0
55651.0,STARLINK-5506,PAYLOAD,2023-03-10 18:03:40,15.69924106,0.0003527,70.0003,90.9456,266.8504,93.2288,5.0964e-05,5.92e-05,0.0,0 STARLINK-5506,1 55651U 23021Z   23069.75254792  .00005920  00000-0  50964-4 0  9995,2 55651  70.0003  90.9456 0003527 266.8504  93.2288 15.69924106  4149,6737.251,91.724,361.492,356.74,0.0
55651.0,STARLINK-5506,PAYLOAD,2023-03-11 03:14:10,15.69926371,0.0003478,70.0005,89.8708,267.8316,92.2481,4.2433e-05,4.893e-05,0.0,0 STARLINK-5506,1 55651U 23021Z   23070.13484884  .00004893  00000-0  42433-4 0  9996,2 55651  70.0005  89.8708 0003478 267.8316  92.2481 15.69926371  3908,6737.245,91.724,361.453,356.766,0.0
55651.0,STARLINK-5506,PAYLOAD,2023-03-11 12:24:42,15.69916239,0.0002891,70.0006,88.7962,294.0099,66.0794,1.0116e-05,1.004e-05,0.0,0 STARLINK-5506,1 55651U 23021Z   23070.51715502  .00001004  00000-0  10116-4 0  9996,2 55651  70.0006  88.7962 0002891 294.0099  66.0794 15.69916239  4265,6737.274,91.725,361.086,357.191,0.0
55651.0,STARLINK-5506,PAYLOAD,2023-03-12 03:42:13,15.69923376,0.0003299,70.0016,87.0053,276.5574,83.5246,2.0352e-05,2.235e-05,0.0,0 STARLINK-5506,1 55651U 23021Z   23071.15431928  .00002235  00000-0  20352-4 0  9994,2 55651  70.0016  87.0053 0003299 276.5574  83.5246 15.69923376  4362,6737.253,91.724,361.341,356.896,0.0
55651.0,STARLINK-5506,PAYLOAD,2023-03-12 12:52:43,15.69935166,0.0002948,70.0019,85.9307,279.2401,80.8461,5.9427e-05,6.942e-05,0.0,0 STARLINK-5506,1 55651U 23021Z   23071.53661729  .00006942  00000-0  59427-4 0  9994,2 55651  70.0019  85.9307 0002948 279.2401  80.8461 15.69935166  4126,6737.219,91.724,361.071,357.098,0.0
55651.0,STARLINK-5506,PAYLOAD,2023-03-13 10:17:15,15.69923911,0.0002686,70.0026,83.4215,277.4512,82.6378,2.578e-05,2.888e-05,0.0,0 STARLINK-5506,1 55651U 23021Z   23072.42865569  .00002888  00000-0  25780-4 0  9991,2 55651  70.0026  83.4215 0002686 277.4512  82.6378 15.69923911  4264,6737.252,91.724,360.926,357.307,0.0
55651.0,STARLINK-5506,PAYLOAD,2023-03-13 13:20:46,15.69926286,0.0002483,70.0026,83.0646,292.4369,67.6563,2.8458e-05,3.211e-05,0.0,0 STARLINK-5506,1 55651U 23021Z   23072.55609130  .00003211  00000-0  28458-4 0  9991,2 55651  70.0026  83.0646 0002483 292.4369  67.6563 15.69926286  4582,6737.245,91.724,360.783,357.437,0.0
55651.0,STARLINK-5506,PAYLOAD,2023-03-14 10:45:17,15.69931915,0.0003306,70.0022,80.5573,271.6627,88.419,2.8493e-05,3.216e-05,0.0,0 STARLINK-5506,1 55651U 23021Z   23073.44811785  .00003216  00000-0  28493-4 0  9995,2 55651  70.0022  80.5573 0003306 271.6627  88.4190 15.69931915  4425,6737.229,91.724,361.321,356.866,0.0
55651.0,STARLINK-5506,PAYLOAD,2023-03-15 03:34:34,15.69909548,0.0002926,70.0025,78.5874,271.9482,88.1379,-3.7045e-05,-4.661e-05,0.0,0 STARLINK-5506,1 55651U 23021Z   23074.14900765 -.00004661  00000-0 -37045-4 0  9990,2 55651  70.0025  78.5874 0002926 271.9482  88.1379 15.69909548  4533,6737.293,91.725,361.129,357.186,0.0
55651.0,STARLINK-5506,PAYLOAD,2023-03-15 09:41:34,15.69919831,0.0003058,70.0016,77.8706,272.3993,87.6853,-8.614e-06,-1.248e-05,0.0,0 STARLINK-5506,1 55651U 23021Z   23074.40387115 -.00001248  00000-0 -86140-5 0  9996,2 55651  70.0016  77.8706 0003058 272.3993  87.6853 15.69919831  4579,6737.263,91.724,361.189,357.068,0.0
55651.0,STARLINK-5506,PAYLOAD,2023-03-15 12:45:04,15.699295,0.0003226,70.001,77.5111,272.6267,87.4559,1.618e-05,1.734e-05,0.0,0 STARLINK-5506,1 55651U 23021Z   23074.53130130  .00001734  00000-0  16180-4 0  9997,2 55651  70.0010  77.5111 0003226 272.6267  87.4559 15.69929500  4894,6737.236,91.724,361.274,356.927,0.0
55651.0,STARLINK-5506,PAYLOAD,2023-03-16 02:30:50,15.69921022,0.0002961,70.0015,75.8981,264.4593,95.6265,-6.2149e-07,-2.87e-06,0.0,0 STARLINK-5506,1 55651U 23021Z   23075.10475503 -.00000287  00000-0 -62149-6 0  9999,2 55651  70.0015  75.8981 0002961 264.4593  95.6265 15.69921022  4684,6737.26,91.724,361.12,357.13,0.0
55651.0,STARLINK-5506,PAYLOAD,2023-03-16 11:41:21,15.69934142,0.0003402,70.0009,74.8246,270.3226,89.758,3.3416e-05,3.809e-05,0.0,0 STARLINK-5506,1 55651U 23021Z   23075.48705034  .00003809  00000-0  33416-4 0  9999,2 55651  70.0009  74.8246 0003402 270.3226  89.7580 15.69934142  4748,6737.222,91.724,361.379,356.795,0.0
